{
  "norad_id": 60365,
  "name": "STARLINK-32188",
  "history": [
    {
      "epoch": "2026-03-28T14:37:01.668576Z",
      "apogee_km": 475.71927092697297,
      "perigee_km": 474.7337572536471,
      "latitude_deg": 2.130439626323539e-05,
      "longitude_deg": 176.48132345523982,
      "height_km": 476.3010430377779,
      "semi_major_axis_km": 6853.36351409031,
      "eccentricity": 7.19e-05,
      "inclination_deg": 53.1597,
      "raan_deg": 221.7653,
      "arg_perigee_deg": 110.8892,
      "mean_anomaly_deg": 249.2186,
      "mean_motion_rev_day": 15.30196167
    },
    {
      "epoch": "2026-03-29T01:35:24.058752Z",
      "apogee_km": 475.74068146546233,
      "perigee_km": 474.73597664222234,
      "latitude_deg": -4.5227719298783214e-05,
      "longitude_deg": 9.313840945355581,
      "height_km": 476.25085144196436,
      "semi_major_axis_km": 6853.3753290538425,
      "eccentricity": 7.33e-05,
      "inclination_deg": 53.16,
      "raan_deg": 219.6418,
      "arg_perigee_deg": 103.082,
      "mean_anomaly_deg": 257.0262,
      "mean_motion_rev_day": 15.3019221
    },
    {
      "epoch": "2026-03-30T01:06:11.930688Z",
      "apogee_km": 475.8551381705538,
      "perigee_km": 474.6070027775595,
      "latitude_deg": 7.555675788778063e-05,
      "longitude_deg": 11.098108234708292,
      "height_km": 476.1413637191049,
      "semi_major_axis_km": 6853.368070474056,
      "eccentricity": 9.106e-05,
      "inclination_deg": 53.1609,
      "raan_deg": 215.0911,
      "arg_perigee_deg": 91.0697,
      "mean_anomaly_deg": 269.0409,
      "mean_motion_rev_day": 15.30194641
    },
    {
      "epoch": "2026-03-30T15:12:41.088960Z",
      "apogee_km": 475.9001825429268,
      "perigee_km": 474.58405961651533,
      "latitude_deg": 1.4279202831880928e-05,
      "longitude_deg": 156.16657140249396,
      "height_km": 475.96751978406263,
      "semi_major_axis_km": 6853.379121079721,
      "eccentricity": 9.602e-05,
      "inclination_deg": 53.1596,
      "raan_deg": 212.3605,
      "arg_perigee_deg": 74.7497,
      "mean_anomaly_deg": 285.361,
      "mean_motion_rev_day": 15.3019094
    },
    {
      "epoch": "2026-03-31T14:43:29.568288Z",
      "apogee_km": 476.08743536363454,
      "perigee_km": 474.45495353171736,
      "latitude_deg": 1.7565531582450505e-05,
      "longitude_deg": 157.9466141798568,
      "height_km": 475.8884653649372,
      "semi_major_axis_km": 6853.408194447676,
      "eccentricity": 0.0001191,
      "inclination_deg": 53.1611,
      "raan_deg": 207.8082,
      "arg_perigee_deg": 69.854,
      "mean_anomaly_deg": 290.2589,
      "mean_motion_rev_day": 15.30181203
    },
    {
      "epoch": "2026-04-01T14:14:16.784448Z",
      "apogee_km": 475.85820877364495,
      "perigee_km": 474.61089515118783,
      "latitude_deg": 3.784444578427518e-05,
      "longitude_deg": 159.73204721821298,
      "height_km": 475.8171951238547,
      "semi_major_axis_km": 6853.371551962416,
      "eccentricity": 9.1e-05,
      "inclination_deg": 53.16,
      "raan_deg": 203.256,
      "arg_perigee_deg": 59.548,
      "mean_anomaly_deg": 300.5611,
      "mean_motion_rev_day": 15.30193475
    }
  ]
}